0 SL-24 DEB
1 29256U 06029C   13281.17787940 -.00000065  00000-0  13958-4 0  2039
2 29256 064.5783 201.7068 0827527 240.4080 226.9120 13.33215425352429
0 SL-24 DEB
1 29256U 06029C   13283.36190054 -.00000006  00000-0  29703-4 0  2047
2 29256 064.5783 196.3684 0827462 239.9250 269.2738 13.33216072352718
0 SL-24 DEB
1 29256U 06029C   13283.62912477  .00000109  00000-0  29086-4 0  2055
2 29256 064.5788 195.7242 0827503 239.8274 111.8703 13.33215743352759
0 SL-24 DEB
1 29256U 06029C   13285.81104130 -.00000010  00000-0  28625-4 0  2057
2 29256 064.5780 190.3821 0827401 239.3817 144.1013 13.33216487353042
0 SL-24 DEB
1 29256U 06029C   13287.84427833  .00000106  00000-0  59692-4 0  2064
2 29256 064.5776 185.4124 0827331 238.9298 182.7758 13.33216674353310
0 SL-24 DEB
1 29256U 06029C   13290.19434501  .00000057  00000-0  46631-4 0  2071
2 29256 064.5771 179.6684 0827239 238.4099 302.0950 13.33218348353627
0 SL-24 DEB
1 29256U 06029C   13292.28799191  .00000077  00000-0  51856-4 0  2080
2 29256 064.5768 174.5508 0827180 237.9475 270.7217 13.33218639353900
0 SL-24 DEB
1 29256U 06029C   13294.82498633  .00000062  00000-0  48037-4 0  2091
2 29256 064.5766 168.3495 0827069 237.3860 207.2322 13.33220013354241
